[
  {
    "norad_id": "32788",
    "name": "AAUSAT-2",
    "tle1": "1 32788U 08021F   25126.53903103  .00588479  13415-3  20839-2 0  9991\r",
    "tle2": "2 32788  97.5933 124.3127 0008635 142.8783 217.3088 15.88956699928027",
    "transmitters": [
      {
        "description": "Mode U 1k2 AFSK TLM",
        "mode": "AFSK",
        "status": "active",
        "uplink": null,
        "downlink": 437425000
      }
    ],
    "image": "https://db-satnogs.freetls.fastly.net/media/satellites/AAUSAT-2.jpg",
    "country": "DK"
  },
  {
    "norad_id": "22825",
    "name": "AO-27",
    "tle1": "1 22825U 93061C   25127.14036939  .00000174  00000+0  83493-4 0  9992\r",
    "tle2": "2 22825  98.7387 188.5253 0007945 203.6335 156.4484 14.30787581649209",
    "transmitters": [
      {
        "description": "Mode V/U FM",
        "mode": "FM",
        "status": "active",
        "uplink": 145850000,
        "downlink": 436795000
      },
      {
        "description": "Mode U AFSK Beacon",
        "mode": "AFSK",
        "status": "active",
        "uplink": null,
        "downlink": 436795000
      },
      {
        "description": "Mode S",
        "mode": "FM",
        "status": "active",
        "uplink": null,
        "downlink": 2218000000
      },
      {
        "description": "Mode U - GMSK9k6",
        "mode": "GMSK",
        "status": "active",
        "uplink": null,
        "downlink": 436797000
      }
    ],
    "image": "satellites/AO-27-PreFlight.jpg",
    "country": "US"
  },
  {
    "norad_id": "39444",
    "name": "AO-73",
    "tle1": "1 39444U 13066AE  25126.83933877  .00008854  00000+0  67032-3 0  9999\r",
    "tle2": "2 39444  97.7787  88.6386 0042301 139.1959 221.2446 15.01817286618529",
    "transmitters": [
      {
        "description": "Mode U/V Linear",
        "mode": "USB",
        "status": "active",
        "uplink": "435130000-435150000",
        "downlink": "145950000-145970000"
      },
      {
        "description": "CW Beacon",
        "mode": "CW",
        "status": "active",
        "uplink": null,
        "downlink": 145815000
      },
      {
        "description": "BPSK Telemetry",
        "mode": "BPSK",
        "status": "active",
        "uplink": null,
        "downlink": 145935000
      }
    ],
    "image": "https://db-satnogs.freetls.fastly.net/media/satellites/FUNCUBE-1.jpg",
    "country": "GB"
  },
  {
    "norad_id": "43017",
    "name": "AO-91",
    "tle1": "1 43017U 17073E   25126.87173347  .00007847  00000+0  40883-3 0  9990\r",
    "tle2": "2 43017  97.5289 358.5015 0172755 281.5410  76.6465 15.04207229404141",
    "transmitters": [
      {
        "description": "DUV TLM",
        "mode": "DUV",
        "status": "active",
        "uplink": null,
        "downlink": 145960000
      },
      {
        "description": "Mode U/V FM Voice CTCSS 67.0Hz",
        "mode": "FM",
        "status": "active",
        "uplink": 435250000,
        "downlink": 145960000
      }
    ],
    "image": "https://db-satnogs.freetls.fastly.net/media/satellites/RadFxSat_Flight-300x300.jpg",
    "country": "US"
  },
  {
    "norad_id": "61781",
    "name": "AO-123",
    "tle1": "1 61781U 24199AY  25127.18451532  .00007999  00000+0  29549-3 0  9999\r",
    "tle2": "2 61781  97.3602 355.3553 0014674 321.4815  38.5376 15.27904640 71780",
    "transmitters": [
      {
        "description": "Image download",
        "mode": "QPSK",
        "status": "active",
        "uplink": null,
        "downlink": 10460000000
      },
      {
        "description": "Mode V/U - FM Transceiver",
        "mode": "FM",
        "status": "active",
        "uplink": 145850000,
        "downlink": 435400000
      },
      {
        "description": "Mode U - Telemetry",
        "mode": "BPSK",
        "status": "active",
        "uplink": null,
        "downlink": 435400000
      },
      {
        "description": "Mode U - SSDV",
        "mode": "BPSK",
        "status": "active",
        "uplink": null,
        "downlink": 436210000
      }
    ],
    "image": "satellites/300px-阿斯图友谊号_IPvWmAo.jpg",
    "country": "CN,RU"
  },
  {
    "norad_id": "57175",
    "name": "BSUSat-2",
    "tle1": "1 57175U 23091K   25127.17195428  .00011758  00000+0  56918-3 0  9997\r",
    "tle2": "2 57175  97.5609 183.6837 0014035 100.0740 260.2078 15.18642650102482",
    "transmitters": [
      {
        "description": "Mode U 9k6 FSK AX.25",
        "mode": "FSK",
        "status": "active",
        "uplink": null,
        "downlink": 436990000
      },
      {
        "description": "Mode S - Transmitter",
        "mode": "FM",
        "status": "active",
        "uplink": null,
        "downlink": 2425000000
      }
    ],
    "image": "satellites/CUBEBEL-2-resize.jpg",
    "country": "BY"
  },
  {
    "norad_id": "41847",
    "name": "CAS-2T",
    "tle1": "1 41847U 16066G   25126.78392493  .00001076  00000+0  16380-3 0  9998\r",
    "tle2": "2 41847  98.4207 201.5380 0345189 280.7944  75.4575 14.43392517446140",
    "transmitters": [
      {
        "description": "FM Transponder",
        "mode": "FMN",
        "status": "active",
        "uplink": 145925000,
        "downlink": 435615000
      },
      {
        "description": "CW Telemetry",
        "mode": "CW",
        "status": "active",
        "uplink": null,
        "downlink": 435710000
      }
    ],
    "image": "satellites/cas-2t-145-435-mhz-fm-transponder-cubesat.jpg",
    "country": "CN"
  },
  {
    "norad_id": "40908",
    "name": "CAS-3H",
    "tle1": "1 40908U 15049K   25127.24429970  .00013212  00000+0  35370-3 0  9993\r",
    "tle2": "2 40908  97.5086 146.8017 0007289 280.3583  79.6840 15.38133421533107",
    "transmitters": [
      {
        "description": "CW Beacon",
        "mode": "CW",
        "status": "active",
        "uplink": null,
        "downlink": 437200000
      },
      {
        "description": "FM Transponder",
        "mode": "FM",
        "status": "active",
        "uplink": 144350000,
        "downlink": 437200000
      },
      {
        "description": "APRS Digipeater",
        "mode": "AFSK",
        "status": "active",
        "uplink": 144390000,
        "downlink": 144390000
      },
      {
        "description": "GFSK Telemetry",
        "mode": "GFSK",
        "status": "active",
        "uplink": null,
        "downlink": 437225000
      },
      {
        "description": "BPSK Telemetry",
        "mode": "BPSK",
        "status": "active",
        "uplink": null,
        "downlink": 437200000
      }
    ],
    "image": "https://db-satnogs.freetls.fastly.net/media/satellites/LILACSAT-2.jpg",
    "country": "CN"
  },
  {
    "norad_id": "44881",
    "name": "CAS-6",
    "tle1": "1 44881U 19093C   25127.15149196  .00001270  00000+0  15302-3 0  9993\r",
    "tle2": "2 44881  97.7929 203.5001 0013346 347.4720  12.6162 14.85531313291111",
    "transmitters": [
      {
        "description": "Mode V CW TLM",
        "mode": "CW",
        "status": "active",
        "uplink": null,
        "downlink": 145910000
      },
      {
        "description": "Mode V GMSK4k8 AX.25 TLM",
        "mode": "GMSK",
        "status": "active",
        "uplink": null,
        "downlink": 145890000
      },
      {
        "description": "Mode U/V Linear Transponder",
        "mode": "USB",
        "status": "active",
        "uplink": "435270000-435290000",
        "downlink": "145915000-145935000"
      },
      {
        "description": "Transmitter 401.545-401.555",
        "mode": "FM",
        "status": "active",
        "uplink": null,
        "downlink": 401550000
      },
      {
        "description": "S-band telemetry",
        "mode": "FM",
        "status": "active",
        "uplink": null,
        "downlink": 2278328000
      }
    ],
    "image": "",
    "country": "CN"
  },
  {
    "norad_id": "50466",
    "name": "CAS-9",
    "tle1": "1 50466U 21131B   25127.21830619  .00000760  00000+0  25126-3 0  9997\r",
    "tle2": "2 50466  98.5086 216.7382 0003368 221.8729 138.2202 14.40772333176645",
    "transmitters": [
      {
        "description": "Mode U - Telemetry",
        "mode": "CW",
        "status": "active",
        "uplink": null,
        "downlink": 435575000
      },
      {
        "description": "Mode U - GMSK4k8 AX.25 Telemetry",
        "mode": "GMSK",
        "status": "active",
        "uplink": null,
        "downlink": 435725000
      },
      {
        "description": "Mode V/U - Transponder",
        "mode": "USB",
        "status": "active",
        "uplink": "145855000-145885000",
        "downlink": "435165000-435195000"
      },
      {
        "description": "Mode U Audio",
        "mode": "BPSK",
        "status": "active",
        "uplink": null,
        "downlink": 435180000
      }
    ],
    "image": "satellites/cas9.png",
    "country": "CN"
  },
  {
    "norad_id": "60246",
    "name": "CatSat",
    "tle1": "1 60246U 24125J   25127.14048340  .00010843  00000+0  36973-3 0  9999\r",
    "tle2": "2 60246  97.2631 338.7387 0042465 211.2809 148.5904 15.29649794 44871",
    "transmitters": [
      {
        "description": "Mode U - FSK2k4",
        "mode": "FSK AX.100 Mode 5",
        "status": "active",
        "uplink": null,
        "downlink": 437185000
      },
      {
        "description": "Mode U - FSK38k4",
        "mode": "FSK AX.100 Mode 5",
        "status": "inactive",
        "uplink": null,
        "downlink": 437185000
      },
      {
        "description": "Mode U - FSK9k6",
        "mode": "FSK AX.100 Mode 5",
        "status": "inactive",
        "uplink": null,
        "downlink": 437185000
      },
      {
        "description": "Mode U - GMSK4k8 - Transmitter Frequency after Reset",
        "mode": "FSK AX.100 Mode 5",
        "status": "inactive",
        "uplink": null,
        "downlink": 437250000
      }
    ],
    "image": "",
    "country": "US"
  }
]